{"spkid": "50151675", "covariance": {"epoch": "2456965.5", "labels": ["e", "q", "tp", "node", "peri", "i", "A2"], "data": [["2.094142144961148E-15", "-2.817587276090491E-15", "4.002163872263818E-13", "9.242231858061168E-14", "4.741972023860408E-13", "2.032312292110506E-14", "2.152132855315355E-22"], ["-2.817587276090491E-15", "3.804046138353702E-15", "-5.453090331746329E-13", "-1.293275964999603E-13", "-6.175007663650998E-13", "-2.681804805847789E-14", "-2.110573498006405E-22"], ["4.002163872263818E-13", "-5.453090331746329E-13", "7.609996822749721E-10", "-1.40935201030853E-10", "6.82550074217047E-10", "5.591413026428102E-11", "4.445245604564832E-20"], ["9.242231858061168E-14", "-1.293275964999603E-13", "-1.40935201030853E-10", "3.361956524161036E-10", "-4.354772214811385E-10", "-2.921629334220815E-11", "-8.991953317579171E-20"], ["4.741972023860408E-13", "-6.175007663650998E-13", "6.82550074217047E-10", "-4.354772214811385E-10", "1.020348180319802E-9", "7.634615780211052E-11", "2.896053789589248E-19"], ["2.032312292110506E-14", "-2.681804805847789E-14", "5.591413026428102E-11", "-2.921629334220815E-11", "7.634615780211052E-11", "5.148117130133256E-11", "2.746045601157094E-20"], ["2.152132855315355E-22", "-2.110573498006405E-22", "4.445245604564832E-20", "-8.991953317579171E-20", "2.896053789589248E-19", "2.746045601157094E-20", "5.255591204087458E-28"]], "elements": [{"units": null, "title": "eccentricity", "value": ".3038075727006362", "name": "e", "sigma": 4.57617978772813e-08, "label": "e"}, {"label": "q", "sigma": 6.16769498139597e-08, "name": "q", "units": "au", "value": ".9533546542839861", "title": "perihelion distance"}, {"name": "tp", "sigma": 2.75862226895052e-05, "value": "2456876.886070794498", "title": "time of perihelion passage", "units": "TDB", "label": "tp"}, {"label": "node", "units": "deg", "title": "longitude of the ascending node", "value": "192.8577034654013", "name": "om", "sigma": 1.83356388603207e-05}, {"label": "peri", "value": "54.16329817392101", "title": "argument of perihelion", "units": "deg", "name": "w", "sigma": 3.19428893545935e-05}, {"sigma": 7.17503806967828e-06, "name": "i", "units": "deg", "title": "inclination", "value": "6.341669639748083", "label": "i"}]}, "elements": [{"label": "e", "value": ".3040280766481352", "title": "eccentricity", "units": null, "name": "e", "sigma": "4.561E-8"}, {"value": "1.369543693809413", "title": "semi-major axis", "units": "au", "name": "a", "sigma": "1.5321E-8", "label": "a"}, {"title": "perihelion distance", "value": ".9531639586949548", "units": "au", "name": "q", "sigma": "6.1027E-8", "label": "q"}, {"title": "inclination; angle with respect to x-y ecliptic plane", "value": "6.337853456389355", "units": "deg", "name": "i", "sigma": "7.18E-6", "label": "i"}, {"label": "node", "sigma": "1.8332E-5", "name": "om", "value": "192.7182302508489", "title": "longitude of the ascending node", "units": "deg"}, {"sigma": "3.2005E-5", "name": "w", "units": "deg", "title": "argument of perihelion", "value": "54.25430816239474", "label": "peri"}, {"label": "M", "title": "mean anomaly", "value": "138.8417107095739", "units": "deg", "sigma": "3.4104E-5", "name": "ma"}, {"units": "TDB", "value": "2460974.722988100655", "title": "time of perihelion passage", "name": "tp", "sigma": "5.2207E-5", "label": "tp"}, {"label": "period", "name": "per", "sigma": "9.8236E-6", "value": "585.4128695791093", "title": "sidereal orbital period", "units": "d"}, {"label": "n", "name": "n", "sigma": "1.0319E-8", "units": "deg/d", "title": "mean motion", "value": ".6149506078655684"}, {"label": "Q", "name": "ad", "sigma": "1.9979E-8", "units": "au", "title": "aphelion distance", "value": "1.785923428923872"}], "epoch": "2461200.5"}